[{"OBJECT_NAME":"STARLINK-5141","OBJECT_ID":"2023-015BD","EPOCH":"2026-03-09T22:00:01.999584","MEAN_MOTION":15.09957718,"ECCENTRICITY":0.00018458,"INCLINATION":43.0002,"RA_OF_ASC_NODE":337.189,"ARG_OF_PERICENTER":263.2743,"MEAN_ANOMALY":130.7297,"EPHEMERIS_TYPE":0,"CLASSIFICATION_TYPE":"U","NORAD_CAT_ID":55500,"ELEMENT_SET_NO":999,"REV_AT_EPOCH":577,"BSTAR":0.00090556622,"MEAN_MOTION_DOT":0.00014764,"MEAN_MOTION_DDOT":0},{"OBJECT_NAME":"RAAF M1","OBJECT_ID":"2018-099X","EPOCH":"2026-03-09T15:51:10.230048","MEAN_MOTION":15.07065376,"ECCENTRICITY":0.00134971,"INCLINATION":97.4534,"RA_OF_ASC_NODE":114.8325,"ARG_OF_PERICENTER":21.6261,"MEAN_ANOMALY":338.5534,"EPHEMERIS_TYPE":0,"CLASSIFICATION_TYPE":"U","NORAD_CAT_ID":43779,"ELEMENT_SET_NO":999,"REV_AT_EPOCH":39714,"BSTAR":0.00026511092,"MEAN_MOTION_DOT":3.923e-5,"MEAN_MOTION_DDOT":0}]
